STARLINK-35777          
1 66975U 25288S   26005.16670139  .00019489  00000+0  47283-3 0  9991
2 66975  43.0000  27.0559 0001261 250.4685 205.7536 15.40685437  5590
STARLINK-35772          
1 66976U 25288T   26004.77673875  .00081954  00000+0  19473-2 0  9993
2 66976  43.0010  31.2956 0000608 349.3971  10.6873 15.40713522  5437
STARLINK-35770          
1 66977U 25288U   26001.58383638  .00106642  00000+0  17973-2 0  9990
2 66977  43.0009  47.6983 0001130 275.3451  84.7280 15.50604727  4967
STARLINK-35787          
1 66978U 25288V   26004.51006192  .00066506  00000+0  15851-2 0  9991
2 66978  43.0005  30.9591 0001536 277.0224  83.0458 15.40707758  5418
STARLINK-36107          
1 66979U 25288W   26004.41673703  .00085808  00000+0  14511-2 0  9997
2 66979  43.0009  31.1126 0001458 262.3368  97.7327 15.50605586  5402
STARLINK-36086          
1 66980U 25288X   26005.16670139  .00022525  00000+0  54520-3 0  9994
2 66980  43.0000  26.9944 0000851 241.2848 239.8109 15.40683573  5598
STARLINK-36142          
1 66981U 25288Y   26005.16670139  .00022143  00000+0  53578-3 0  9993
2 66981  42.9999  26.9344 0001127 263.2945 242.6381 15.40701440  5595
STARLINK-36113          
1 66982U 25288Z   26005.16670139 -.02065118  00000+0 -47973-1 0  9997
2 66982  43.0003  26.7424 0000678 272.1106 313.2063 15.45113862  5591
STARLINK-36145          
1 66983U 25288AA  26004.41500570  .00146702  00000+0  24537-2 0  9993
2 66983  43.0001  31.0977 0000817 253.7119 106.3651 15.50648998  5409
STARLINK-35591          
1 66984U 25288AB  26005.18884081  .00102747  00000+0  18873-2 0  9998
2 66984  43.0008  26.5836 0001270 342.7238  17.3578 15.48178860  5520
STARLINK-36103          
1 66985U 25288AC  26004.41467031  .00103372  00000+0  17431-2 0  9990
2 66985  43.0004  31.0947 0000620 311.5674  48.5132 15.50604259  5405
STARLINK-36135          
1 66986U 25288AD  26004.41432486  .00072242  00000+0  12253-2 0  9995
2 66986  43.0005  31.0914 0001719 262.8349  97.2316 15.50593045  5403
