CCSDS_OMM_VERS = 2.0
CREATION_DATE  = 
ORIGINATOR     = 

OBJECT_NAME    = STARLINK-35777
OBJECT_ID      = 2025-288S
CENTER_NAME    = EARTH
REF_FRAME      = TEME
TIME_SYSTEM    = UTC
MEAN_ELEMENT_THEORY = SGP/SGP4

EPOCH          = 2026-01-05T04:00:03.000096
MEAN_MOTION    = 15.40685437
ECCENTRICITY   = .0001261
INCLINATION    = 43.0000
RA_OF_ASC_NODE = 27.0559
ARG_OF_PERICENTER = 250.4685
MEAN_ANOMALY   = 205.7536

EPHEMERIS_TYPE = 0
CLASSIFICATION_TYPE = U
NORAD_CAT_ID   = 66975
ELEMENT_SET_NO = 999
REV_AT_EPOCH   = 559
BSTAR          = .47283E-3
MEAN_MOTION_DOT = .19489E-3
MEAN_MOTION_DDOT = 0

CCSDS_OMM_VERS = 2.0
CREATION_DATE  = 
ORIGINATOR     = 

OBJECT_NAME    = STARLINK-35772
OBJECT_ID      = 2025-288T
CENTER_NAME    = EARTH
REF_FRAME      = TEME
TIME_SYSTEM    = UTC
MEAN_ELEMENT_THEORY = SGP/SGP4

EPOCH          = 2026-01-04T18:38:30.228000
MEAN_MOTION    = 15.40713522
ECCENTRICITY   = .00006085
INCLINATION    = 43.0010
RA_OF_ASC_NODE = 31.2956
ARG_OF_PERICENTER = 349.3971
MEAN_ANOMALY   = 10.6873

EPHEMERIS_TYPE = 0
CLASSIFICATION_TYPE = U
NORAD_CAT_ID   = 66976
ELEMENT_SET_NO = 999
REV_AT_EPOCH   = 543
BSTAR          = .19472843E-2
MEAN_MOTION_DOT = .81954E-3
MEAN_MOTION_DDOT = 0

CCSDS_OMM_VERS = 2.0
CREATION_DATE  = 
ORIGINATOR     = 

OBJECT_NAME    = STARLINK-35770
OBJECT_ID      = 2025-288U
CENTER_NAME    = EARTH
REF_FRAME      = TEME
TIME_SYSTEM    = UTC
MEAN_ELEMENT_THEORY = SGP/SGP4

EPOCH          = 2026-01-01T14:00:43.463232
MEAN_MOTION    = 15.50604727
ECCENTRICITY   = .000113
INCLINATION    = 43.0009
RA_OF_ASC_NODE = 47.6983
ARG_OF_PERICENTER = 275.3451
MEAN_ANOMALY   = 84.7280

EPHEMERIS_TYPE = 0
CLASSIFICATION_TYPE = U
NORAD_CAT_ID   = 66977
ELEMENT_SET_NO = 999
REV_AT_EPOCH   = 496
BSTAR          = .17973E-2
MEAN_MOTION_DOT = .106642E-2
MEAN_MOTION_DDOT = 0

CCSDS_OMM_VERS = 2.0
CREATION_DATE  = 
ORIGINATOR     = 

OBJECT_NAME    = STARLINK-35787
OBJECT_ID      = 2025-288V
CENTER_NAME    = EARTH
REF_FRAME      = TEME
TIME_SYSTEM    = UTC
MEAN_ELEMENT_THEORY = SGP/SGP4

EPOCH          = 2026-01-04T12:14:29.349888
MEAN_MOTION    = 15.40707758
ECCENTRICITY   = .0001536
INCLINATION    = 43.0005
RA_OF_ASC_NODE = 30.9591
ARG_OF_PERICENTER = 277.0224
MEAN_ANOMALY   = 83.0458

EPHEMERIS_TYPE = 0
CLASSIFICATION_TYPE = U
NORAD_CAT_ID   = 66978
ELEMENT_SET_NO = 999
REV_AT_EPOCH   = 541
BSTAR          = .15851E-2
MEAN_MOTION_DOT = .66506E-3
MEAN_MOTION_DDOT = 0

CCSDS_OMM_VERS = 2.0
CREATION_DATE  = 
ORIGINATOR     = 

OBJECT_NAME    = STARLINK-36107
OBJECT_ID      = 2025-288W
CENTER_NAME    = EARTH
REF_FRAME      = TEME
TIME_SYSTEM    = UTC
MEAN_ELEMENT_THEORY = SGP/SGP4

EPOCH          = 2026-01-04T10:00:06.079392
MEAN_MOTION    = 15.50605586
ECCENTRICITY   = .00014583
INCLINATION    = 43.0009
RA_OF_ASC_NODE = 31.1126
ARG_OF_PERICENTER = 262.3368
MEAN_ANOMALY   = 97.7327

EPHEMERIS_TYPE = 0
CLASSIFICATION_TYPE = U
NORAD_CAT_ID   = 66979
ELEMENT_SET_NO = 999
REV_AT_EPOCH   = 540
BSTAR          = .14511222E-2
MEAN_MOTION_DOT = .85808E-3
MEAN_MOTION_DDOT = 0

CCSDS_OMM_VERS = 2.0
CREATION_DATE  = 
ORIGINATOR     = 

OBJECT_NAME    = STARLINK-36086
OBJECT_ID      = 2025-288X
CENTER_NAME    = EARTH
REF_FRAME      = TEME
TIME_SYSTEM    = UTC
MEAN_ELEMENT_THEORY = SGP/SGP4

EPOCH          = 2026-01-05T04:00:03.000096
MEAN_MOTION    = 15.40683573
ECCENTRICITY   = .0000851
INCLINATION    = 43.0000
RA_OF_ASC_NODE = 26.9944
ARG_OF_PERICENTER = 241.2848
MEAN_ANOMALY   = 239.8109

EPHEMERIS_TYPE = 0
CLASSIFICATION_TYPE = U
NORAD_CAT_ID   = 66980
ELEMENT_SET_NO = 999
REV_AT_EPOCH   = 559
BSTAR          = .5452E-3
MEAN_MOTION_DOT = .22525E-3
MEAN_MOTION_DDOT = 0

CCSDS_OMM_VERS = 2.0
CREATION_DATE  = 
ORIGINATOR     = 

OBJECT_NAME    = STARLINK-36142
OBJECT_ID      = 2025-288Y
CENTER_NAME    = EARTH
REF_FRAME      = TEME
TIME_SYSTEM    = UTC
MEAN_ELEMENT_THEORY = SGP/SGP4

EPOCH          = 2026-01-05T04:00:03.000096
MEAN_MOTION    = 15.40701440
ECCENTRICITY   = .0001127
INCLINATION    = 42.9999
RA_OF_ASC_NODE = 26.9344
ARG_OF_PERICENTER = 263.2945
MEAN_ANOMALY   = 242.6381

EPHEMERIS_TYPE = 0
CLASSIFICATION_TYPE = U
NORAD_CAT_ID   = 66981
ELEMENT_SET_NO = 999
REV_AT_EPOCH   = 559
BSTAR          = .53578E-3
MEAN_MOTION_DOT = .22143E-3
MEAN_MOTION_DDOT = 0

CCSDS_OMM_VERS = 2.0
CREATION_DATE  = 
ORIGINATOR     = 

OBJECT_NAME    = STARLINK-36113
OBJECT_ID      = 2025-288Z
CENTER_NAME    = EARTH
REF_FRAME      = TEME
TIME_SYSTEM    = UTC
MEAN_ELEMENT_THEORY = SGP/SGP4

EPOCH          = 2026-01-05T04:00:03.000096
MEAN_MOTION    = 15.45113862
ECCENTRICITY   = .0000678
INCLINATION    = 43.0003
RA_OF_ASC_NODE = 26.7424
ARG_OF_PERICENTER = 272.1106
MEAN_ANOMALY   = 313.2063

EPHEMERIS_TYPE = 0
CLASSIFICATION_TYPE = U
NORAD_CAT_ID   = 66982
ELEMENT_SET_NO = 999
REV_AT_EPOCH   = 559
BSTAR          = -.47973E-1
MEAN_MOTION_DOT = -.2065118E-1
MEAN_MOTION_DDOT = 0

CCSDS_OMM_VERS = 2.0
CREATION_DATE  = 
ORIGINATOR     = 

OBJECT_NAME    = STARLINK-36145
OBJECT_ID      = 2025-288AA
CENTER_NAME    = EARTH
REF_FRAME      = TEME
TIME_SYSTEM    = UTC
MEAN_ELEMENT_THEORY = SGP/SGP4

EPOCH          = 2026-01-04T09:57:36.492480
MEAN_MOTION    = 15.50648998
ECCENTRICITY   = .00008173
INCLINATION    = 43.0001
RA_OF_ASC_NODE = 31.0977
ARG_OF_PERICENTER = 253.7119
MEAN_ANOMALY   = 106.3651

EPHEMERIS_TYPE = 0
CLASSIFICATION_TYPE = U
NORAD_CAT_ID   = 66983
ELEMENT_SET_NO = 999
REV_AT_EPOCH   = 540
BSTAR          = .24537411E-2
MEAN_MOTION_DOT = .146702E-2
MEAN_MOTION_DDOT = 0

CCSDS_OMM_VERS = 2.0
CREATION_DATE  = 
ORIGINATOR     = 

OBJECT_NAME    = STARLINK-35591
OBJECT_ID      = 2025-288AB
CENTER_NAME    = EARTH
REF_FRAME      = TEME
TIME_SYSTEM    = UTC
MEAN_ELEMENT_THEORY = SGP/SGP4

EPOCH          = 2026-01-05T04:31:55.845984
MEAN_MOTION    = 15.48178860
ECCENTRICITY   = .000127
INCLINATION    = 43.0008
RA_OF_ASC_NODE = 26.5836
ARG_OF_PERICENTER = 342.7238
MEAN_ANOMALY   = 17.3578

EPHEMERIS_TYPE = 0
CLASSIFICATION_TYPE = U
NORAD_CAT_ID   = 66984
ELEMENT_SET_NO = 999
REV_AT_EPOCH   = 552
BSTAR          = .18873E-2
MEAN_MOTION_DOT = .102747E-2
MEAN_MOTION_DDOT = 0

CCSDS_OMM_VERS = 2.0
CREATION_DATE  = 
ORIGINATOR     = 

OBJECT_NAME    = STARLINK-36103
OBJECT_ID      = 2025-288AC
CENTER_NAME    = EARTH
REF_FRAME      = TEME
TIME_SYSTEM    = UTC
MEAN_ELEMENT_THEORY = SGP/SGP4

EPOCH          = 2026-01-04T09:57:07.514784
MEAN_MOTION    = 15.50604259
ECCENTRICITY   = .00006209
INCLINATION    = 43.0004
RA_OF_ASC_NODE = 31.0947
ARG_OF_PERICENTER = 311.5674
MEAN_ANOMALY   = 48.5132

EPHEMERIS_TYPE = 0
CLASSIFICATION_TYPE = U
NORAD_CAT_ID   = 66985
ELEMENT_SET_NO = 999
REV_AT_EPOCH   = 540
BSTAR          = .1743129E-2
MEAN_MOTION_DOT = .103372E-2
MEAN_MOTION_DDOT = 0

CCSDS_OMM_VERS = 2.0
CREATION_DATE  = 
ORIGINATOR     = 

OBJECT_NAME    = STARLINK-36135
OBJECT_ID      = 2025-288AD
CENTER_NAME    = EARTH
REF_FRAME      = TEME
TIME_SYSTEM    = UTC
MEAN_ELEMENT_THEORY = SGP/SGP4

EPOCH          = 2026-01-04T09:56:37.667904
MEAN_MOTION    = 15.50593045
ECCENTRICITY   = .00017194
INCLINATION    = 43.0005
RA_OF_ASC_NODE = 31.0914
ARG_OF_PERICENTER = 262.8349
MEAN_ANOMALY   = 97.2316

EPHEMERIS_TYPE = 0
CLASSIFICATION_TYPE = U
NORAD_CAT_ID   = 66986
ELEMENT_SET_NO = 999
REV_AT_EPOCH   = 540
BSTAR          = .12252737E-2
MEAN_MOTION_DOT = .72242E-3
MEAN_MOTION_DDOT = 0

